KUIPER-00176            
1 65788U 25217AC  25298.28786309  .00035051  00000+0  94947-3 0  9999
2 65788  51.8719 298.5191 0002248  97.5511 262.5731 15.37330364  4595
KUIPER-00101            
1 65947U 25228A   25298.28033710  .00037955  00000+0  11227-2 0  9993
2 65947  51.8806 254.0073 0005904 176.5727 183.5300 15.34527689  2973
KUIPER-00113            
1 65948U 25228B   25298.27845667  .00032547  00000+0  95763-3 0  9995
2 65948  51.8808 253.9972 0006384 172.1295 187.9792 15.34768866  2974
KUIPER-00117            
1 65949U 25228C   25298.27875527  .00039471  00000+0  11593-2 0  9995
2 65949  51.8810 254.0002 0006080 172.7364 187.3711 15.34734151  2975
KUIPER-00121            
1 65950U 25228D   25298.21811124  .00022234  00000+0  67191-3 0  9999
2 65950  51.8813 254.3442 0005727 190.4119 169.6749 15.34140118  2960
KUIPER-00122            
1 65951U 25228E   25298.28406798  .00042309  00000+0  12700-2 0  9994
2 65951  51.8802 254.0330 0005972 197.2792 162.7991 15.34014432  2979
KUIPER-00123            
1 65952U 25228F   25298.28326992  .00069164  00000+0  20572-2 0  9996
2 65952  51.8799 254.0256 0005483 185.7358 174.3566 15.34085408  2977
KUIPER-00124            
1 65953U 25228G   25298.28443845  .00027670  00000+0  83742-3 0  9999
2 65953  51.8810 254.0369 0005602 200.5268 159.5493 15.33965861  2979
